CCSDS_OMM_VERS = 2.0
CREATION_DATE  = 
ORIGINATOR     = 

OBJECT_NAME    = STARLINK-36854
OBJECT_ID      = 2026-057U
CENTER_NAME    = EARTH
REF_FRAME      = TEME
TIME_SYSTEM    = UTC
MEAN_ELEMENT_THEORY = SGP/SGP4

EPOCH          = 2026-03-27T20:00:01.999872
MEAN_MOTION    = 16.05719418
ECCENTRICITY   = .00012359
INCLINATION    = 97.2799
RA_OF_ASC_NODE = 209.8725
ARG_OF_PERICENTER = 68.6132
MEAN_ANOMALY   = 182.6291

EPHEMERIS_TYPE = 0
CLASSIFICATION_TYPE = U
NORAD_CAT_ID   = 68312
ELEMENT_SET_NO = 999
REV_AT_EPOCH   = 212
BSTAR          = -.12834902E-2
MEAN_MOTION_DOT = -.907668E-2
MEAN_MOTION_DDOT = .29295445E-3

CCSDS_OMM_VERS = 2.0
CREATION_DATE  = 
ORIGINATOR     = 

OBJECT_NAME    = STARLINK-36815
OBJECT_ID      = 2026-057V
CENTER_NAME    = EARTH
REF_FRAME      = TEME
TIME_SYSTEM    = UTC
MEAN_ELEMENT_THEORY = SGP/SGP4

EPOCH          = 2026-03-27T20:00:01.999872
MEAN_MOTION    = 16.05884159
ECCENTRICITY   = .00011107
INCLINATION    = 97.2801
RA_OF_ASC_NODE = 209.8736
ARG_OF_PERICENTER = 85.2340
MEAN_ANOMALY   = 168.3499

EPHEMERIS_TYPE = 0
CLASSIFICATION_TYPE = U
NORAD_CAT_ID   = 68313
ELEMENT_SET_NO = 999
REV_AT_EPOCH   = 212
BSTAR          = -.13194668E-2
MEAN_MOTION_DOT = -.942232E-2
MEAN_MOTION_DDOT = .31458106E-3

CCSDS_OMM_VERS = 2.0
CREATION_DATE  = 
ORIGINATOR     = 

OBJECT_NAME    = STARLINK-37155
OBJECT_ID      = 2026-057W
CENTER_NAME    = EARTH
REF_FRAME      = TEME
TIME_SYSTEM    = UTC
MEAN_ELEMENT_THEORY = SGP/SGP4

EPOCH          = 2026-03-27T20:00:01.999872
MEAN_MOTION    = 16.06197888
ECCENTRICITY   = .00010935
INCLINATION    = 97.2797
RA_OF_ASC_NODE = 209.8755
ARG_OF_PERICENTER = 72.1467
MEAN_ANOMALY   = 186.3393

EPHEMERIS_TYPE = 0
CLASSIFICATION_TYPE = U
NORAD_CAT_ID   = 68314
ELEMENT_SET_NO = 999
REV_AT_EPOCH   = 217
BSTAR          = -.13178778E-2
MEAN_MOTION_DOT = -.959202E-2
MEAN_MOTION_DDOT = .3264093E-3

CCSDS_OMM_VERS = 2.0
CREATION_DATE  = 
ORIGINATOR     = 

OBJECT_NAME    = STARLINK-37150
OBJECT_ID      = 2026-057X
CENTER_NAME    = EARTH
REF_FRAME      = TEME
TIME_SYSTEM    = UTC
MEAN_ELEMENT_THEORY = SGP/SGP4

EPOCH          = 2026-03-27T20:00:01.999872
MEAN_MOTION    = 16.06041398
ECCENTRICITY   = .00011292
INCLINATION    = 97.2798
RA_OF_ASC_NODE = 209.8745
ARG_OF_PERICENTER = 77.0385
MEAN_ANOMALY   = 179.1844

EPHEMERIS_TYPE = 0
CLASSIFICATION_TYPE = U
NORAD_CAT_ID   = 68315
ELEMENT_SET_NO = 999
REV_AT_EPOCH   = 217
BSTAR          = -.12830457E-2
MEAN_MOTION_DOT = -.92522E-2
MEAN_MOTION_DDOT = .30473579E-3

CCSDS_OMM_VERS = 2.0
CREATION_DATE  = 
ORIGINATOR     = 

OBJECT_NAME    = STARLINK-37154
OBJECT_ID      = 2026-057Y
CENTER_NAME    = EARTH
REF_FRAME      = TEME
TIME_SYSTEM    = UTC
MEAN_ELEMENT_THEORY = SGP/SGP4

EPOCH          = 2026-03-27T20:00:01.999872
MEAN_MOTION    = 16.06549894
ECCENTRICITY   = .00011394
INCLINATION    = 97.2794
RA_OF_ASC_NODE = 209.8778
ARG_OF_PERICENTER = 89.7515
MEAN_ANOMALY   = 173.7140

EPHEMERIS_TYPE = 0
CLASSIFICATION_TYPE = U
NORAD_CAT_ID   = 68316
ELEMENT_SET_NO = 999
REV_AT_EPOCH   = 207
BSTAR          = -.14322387E-2
MEAN_MOTION_DOT = -.1064251E-1
MEAN_MOTION_DDOT = .39730401E-3

CCSDS_OMM_VERS = 2.0
CREATION_DATE  = 
ORIGINATOR     = 

OBJECT_NAME    = STARLINK-37139
OBJECT_ID      = 2026-057Z
CENTER_NAME    = EARTH
REF_FRAME      = TEME
TIME_SYSTEM    = UTC
MEAN_ELEMENT_THEORY = SGP/SGP4

EPOCH          = 2026-03-27T20:00:01.999872
MEAN_MOTION    = 16.06366483
ECCENTRICITY   = .00011429
INCLINATION    = 97.2794
RA_OF_ASC_NODE = 209.8766
ARG_OF_PERICENTER = 75.7927
MEAN_ANOMALY   = 185.2154

EPHEMERIS_TYPE = 0
CLASSIFICATION_TYPE = U
NORAD_CAT_ID   = 68317
ELEMENT_SET_NO = 999
REV_AT_EPOCH   = 192
BSTAR          = -.13477996E-2
MEAN_MOTION_DOT = -.990918E-2
MEAN_MOTION_DDOT = .34738002E-3

CCSDS_OMM_VERS = 2.0
CREATION_DATE  = 
ORIGINATOR     = 

OBJECT_NAME    = STARLINK-37113
OBJECT_ID      = 2026-057AA
CENTER_NAME    = EARTH
REF_FRAME      = TEME
TIME_SYSTEM    = UTC
MEAN_ELEMENT_THEORY = SGP/SGP4

EPOCH          = 2026-03-27T20:00:01.999872
MEAN_MOTION    = 16.06722042
ECCENTRICITY   = .00011331
INCLINATION    = 97.2794
RA_OF_ASC_NODE = 209.8788
ARG_OF_PERICENTER = 88.1548
MEAN_ANOMALY   = 177.8967

EPHEMERIS_TYPE = 0
CLASSIFICATION_TYPE = U
NORAD_CAT_ID   = 68318
ELEMENT_SET_NO = 999
REV_AT_EPOCH   = 217
BSTAR          = -.1465649E-2
MEAN_MOTION_DOT = -.1100348E-1
MEAN_MOTION_DDOT = .4234744E-3

CCSDS_OMM_VERS = 2.0
CREATION_DATE  = 
ORIGINATOR     = 

OBJECT_NAME    = PROGRESS-MS 33
OBJECT_ID      = 2026-058A
CENTER_NAME    = EARTH
REF_FRAME      = TEME
TIME_SYSTEM    = UTC
MEAN_ELEMENT_THEORY = SGP/SGP4

EPOCH          = 2026-03-27T20:12:32.651712
MEAN_MOTION    = 15.48591753
ECCENTRICITY   = .0006212
INCLINATION    = 51.6344
RA_OF_ASC_NODE = 342.6225
ARG_OF_PERICENTER = 240.1567
MEAN_ANOMALY   = 119.8804

EPHEMERIS_TYPE = 0
CLASSIFICATION_TYPE = U
NORAD_CAT_ID   = 68319
ELEMENT_SET_NO = 999
REV_AT_EPOCH   = 33
BSTAR          = .22728466E-3
MEAN_MOTION_DOT = .1192E-3
MEAN_MOTION_DDOT = 0

CCSDS_OMM_VERS = 2.0
CREATION_DATE  = 
ORIGINATOR     = 

OBJECT_NAME    = CENTISPACE-1 OBJECT A
OBJECT_ID      = 2026-060A
CENTER_NAME    = EARTH
REF_FRAME      = TEME
TIME_SYSTEM    = UTC
MEAN_ELEMENT_THEORY = SGP/SGP4

EPOCH          = 2026-03-27T22:09:19.104192
MEAN_MOTION    = 14.74881542
ECCENTRICITY   = .00117326
INCLINATION    = 54.9873
RA_OF_ASC_NODE = 7.2314
ARG_OF_PERICENTER = 301.6277
MEAN_ANOMALY   = 58.3578

EPHEMERIS_TYPE = 0
CLASSIFICATION_TYPE = U
NORAD_CAT_ID   = 68350
ELEMENT_SET_NO = 999
REV_AT_EPOCH   = 78
BSTAR          = .33313808E-4
MEAN_MOTION_DOT = .16E-6
MEAN_MOTION_DDOT = 0

CCSDS_OMM_VERS = 2.0
CREATION_DATE  = 
ORIGINATOR     = 

OBJECT_NAME    = CENTISPACE-1 OBJECT B
OBJECT_ID      = 2026-060B
CENTER_NAME    = EARTH
REF_FRAME      = TEME
TIME_SYSTEM    = UTC
MEAN_ELEMENT_THEORY = SGP/SGP4

EPOCH          = 2026-03-26T11:59:46.275360
MEAN_MOTION    = 14.74920000
ECCENTRICITY   = .0012921
INCLINATION    = 54.9834
RA_OF_ASC_NODE = 13.0446
ARG_OF_PERICENTER = 301.6406
MEAN_ANOMALY   = 58.3332

EPHEMERIS_TYPE = 0
CLASSIFICATION_TYPE = U
NORAD_CAT_ID   = 68351
ELEMENT_SET_NO = 999
REV_AT_EPOCH   = 57
BSTAR          = .33361247E-4
MEAN_MOTION_DOT = .16E-6
MEAN_MOTION_DDOT = 0

CCSDS_OMM_VERS = 2.0
CREATION_DATE  = 
ORIGINATOR     = 

OBJECT_NAME    = CENTISPACE-1 OBJECT C
OBJECT_ID      = 2026-060C
CENTER_NAME    = EARTH
REF_FRAME      = TEME
TIME_SYSTEM    = UTC
MEAN_ELEMENT_THEORY = SGP/SGP4

EPOCH          = 2026-03-27T22:08:14.091648
MEAN_MOTION    = 14.75105865
ECCENTRICITY   = .0012478
INCLINATION    = 54.9842
RA_OF_ASC_NODE = 7.2354
ARG_OF_PERICENTER = 312.0878
MEAN_ANOMALY   = 47.9059

EPHEMERIS_TYPE = 0
CLASSIFICATION_TYPE = U
NORAD_CAT_ID   = 68352
ELEMENT_SET_NO = 999
REV_AT_EPOCH   = 78
BSTAR          = .32640946E-4
MEAN_MOTION_DOT = .12E-6
MEAN_MOTION_DDOT = 0

CCSDS_OMM_VERS = 2.0
CREATION_DATE  = 
ORIGINATOR     = 

OBJECT_NAME    = CENTISPACE-1 OBJECT D
OBJECT_ID      = 2026-060D
CENTER_NAME    = EARTH
REF_FRAME      = TEME
TIME_SYSTEM    = UTC
MEAN_ELEMENT_THEORY = SGP/SGP4

EPOCH          = 2026-03-27T05:52:15.256992
MEAN_MOTION    = 14.75149905
ECCENTRICITY   = .00123668
INCLINATION    = 54.9867
RA_OF_ASC_NODE = 10.0060
ARG_OF_PERICENTER = 310.0626
MEAN_ANOMALY   = 49.9288

EPHEMERIS_TYPE = 0
CLASSIFICATION_TYPE = U
NORAD_CAT_ID   = 68353
ELEMENT_SET_NO = 999
REV_AT_EPOCH   = 68
BSTAR          = .3510946E-4
MEAN_MOTION_DOT = .29E-6
MEAN_MOTION_DDOT = 0

