STARLINK-36854          
1 68312U 26057U   26086.83335648 -.00907668  29295-3 -12835-2 0  9991
2 68312  97.2799 209.8725 0001235  68.6132 182.6291 16.05719418  2121
STARLINK-36815          
1 68313U 26057V   26086.83335648 -.00942232  31458-3 -13195-2 0  9992
2 68313  97.2801 209.8736 0001110  85.2340 168.3499 16.05884159  2122
STARLINK-37155          
1 68314U 26057W   26086.83335648 -.00959202  32641-3 -13179-2 0  9995
2 68314  97.2797 209.8755 0001093  72.1467 186.3393 16.06197888  2178
STARLINK-37150          
1 68315U 26057X   26086.83335648 -.00925220  30474-3 -12830-2 0  9994
2 68315  97.2798 209.8745 0001129  77.0385 179.1844 16.06041398  2177
STARLINK-37154          
1 68316U 26057Y   26086.83335648 -.01064251  39730-3 -14322-2 0  9996
2 68316  97.2794 209.8778 0001139  89.7515 173.7140 16.06549894  2078
STARLINK-37139          
1 68317U 26057Z   26086.83335648 -.00990918  34738-3 -13478-2 0  9998
2 68317  97.2794 209.8766 0001142  75.7927 185.2154 16.06366483  1929
STARLINK-37113          
1 68318U 26057AA  26086.83335648 -.01100348  42347-3 -14656-2 0  9994
2 68318  97.2794 209.8788 0001133  88.1548 177.8967 16.06722042  2175
PROGRESS-MS 33          
1 68319U 26058A   26086.84204458  .00011920  00000+0  22728-3 0  9991
2 68319  51.6344 342.6225 0006212 240.1567 119.8804 15.48591753   337
CENTISPACE-1 OBJECT A   
1 68350U 26060A   26086.92313778  .00000016  00000+0  33314-4 0  9992
2 68350  54.9873   7.2314 0011732 301.6277  58.3578 14.74881542   782
CENTISPACE-1 OBJECT B   
1 68351U 26060B   26085.49984115  .00000016  00000+0  33361-4 0  9995
2 68351  54.9834  13.0446 0012921 301.6406  58.3332 14.74920000   574
CENTISPACE-1 OBJECT C   
1 68352U 26060C   26086.92238532  .00000012  00000+0  32641-4 0  9996
2 68352  54.9842   7.2354 0012478 312.0878  47.9059 14.75105865   781
CENTISPACE-1 OBJECT D   
1 68353U 26060D   26086.24462103  .00000029  00000+0  35109-4 0  9995
2 68353  54.9867  10.0060 0012366 310.0626  49.9288 14.75149905   688
